[{"OBJECT_NAME":"ONEWEB-0125","OBJECT_ID":"2020-100P","EPOCH":"2025-07-30T12:41:54.451680","MEAN_MOTION":13.124435,"ECCENTRICITY":0.0001739,"INCLINATION":87.8861,"RA_OF_ASC_NODE":54.5921,"ARG_OF_PERICENTER":95.1319,"MEAN_ANOMALY":265.0008,"EPHEMERIS_TYPE":0,"CLASSIFICATION_TYPE":"U","NORAD_CAT_ID":47271,"ELEMENT_SET_NO":999,"REV_AT_EPOCH":22244,"BSTAR":-0.00054239,"MEAN_MOTION_DOT":-1.82e-6,"MEAN_MOTION_DDOT":0},{"OBJECT_NAME":"ONEWEB-0126","OBJECT_ID":"2020-100Q","EPOCH":"2025-07-29T22:34:14.467008","MEAN_MOTION":13.12443556,"ECCENTRICITY":0.0001671,"INCLINATION":87.8869,"RA_OF_ASC_NODE":54.7274,"ARG_OF_PERICENTER":83.5146,"MEAN_ANOMALY":276.6173,"EPHEMERIS_TYPE":0,"CLASSIFICATION_TYPE":"U","NORAD_CAT_ID":47272,"ELEMENT_SET_NO":999,"REV_AT_EPOCH":22243,"BSTAR":0.0013562,"MEAN_MOTION_DOT":5.01e-6,"MEAN_MOTION_DDOT":0},{"OBJECT_NAME":"ONEWEB-0127","OBJECT_ID":"2020-100R","EPOCH":"2025-07-30T03:14:18.422016","MEAN_MOTION":13.12443305,"ECCENTRICITY":0.0001711,"INCLINATION":87.8862,"RA_OF_ASC_NODE":54.704,"ARG_OF_PERICENTER":80.9709,"MEAN_ANOMALY":279.1613,"EPHEMERIS_TYPE":0,"CLASSIFICATION_TYPE":"U","NORAD_CAT_ID":47273,"ELEMENT_SET_NO":999,"REV_AT_EPOCH":22248,"BSTAR":-0.0012281,"MEAN_MOTION_DOT":-4.29e-6,"MEAN_MOTION_DDOT":0},{"OBJECT_NAME":"ONEWEB-0128","OBJECT_ID":"2020-100S","EPOCH":"2025-07-30T01:57:14.354496","MEAN_MOTION":13.12443198,"ECCENTRICITY":0.0001914,"INCLINATION":87.8855,"RA_OF_ASC_NODE":54.7415,"ARG_OF_PERICENTER":79.4431,"MEAN_ANOMALY":280.6914,"EPHEMERIS_TYPE":0,"CLASSIFICATION_TYPE":"U","NORAD_CAT_ID":47274,"ELEMENT_SET_NO":999,"REV_AT_EPOCH":22249,"BSTAR":0.00059176,"MEAN_MOTION_DOT":2.26e-6,"MEAN_MOTION_DDOT":0},{"OBJECT_NAME":"ONEWEB-0129","OBJECT_ID":"2020-100T","EPOCH":"2025-07-30T01:26:51.919296","MEAN_MOTION":13.1244328,"ECCENTRICITY":0.000117,"INCLINATION":87.886,"RA_OF_ASC_NODE":54.6883,"ARG_OF_PERICENTER":42.7304,"MEAN_ANOMALY":317.3916,"EPHEMERIS_TYPE":0,"CLASSIFICATION_TYPE":"U","NORAD_CAT_ID":47275,"ELEMENT_SET_NO":999,"REV_AT_EPOCH":22242,"BSTAR":-0.0010229,"MEAN_MOTION_DOT":-3.55e-6,"MEAN_MOTION_DDOT":0},{"OBJECT_NAME":"ONEWEB-0130","OBJECT_ID":"2020-100U","EPOCH":"2025-07-30T02:06:34.866720","MEAN_MOTION":13.12445468,"ECCENTRICITY":0.0001782,"INCLINATION":87.8847,"RA_OF_ASC_NODE":54.6828,"ARG_OF_PERICENTER":81.9938,"MEAN_ANOMALY":278.1393,"EPHEMERIS_TYPE":0,"CLASSIFICATION_TYPE":"U","NORAD_CAT_ID":47276,"ELEMENT_SET_NO":999,"REV_AT_EPOCH":22239,"BSTAR":0.00095293,"MEAN_MOTION_DOT":3.56e-6,"MEAN_MOTION_DDOT":0},{"OBJECT_NAME":"ONEWEB-0131","OBJECT_ID":"2020-100V","EPOCH":"2025-07-29T20:32:34.541376","MEAN_MOTION":13.12443468,"ECCENTRICITY":0.0001848,"INCLINATION":87.8853,"RA_OF_ASC_NODE":54.7558,"ARG_OF_PERICENTER":84.5788,"MEAN_ANOMALY":275.5551,"EPHEMERIS_TYPE":0,"CLASSIFICATION_TYPE":"U","NORAD_CAT_ID":47277,"ELEMENT_SET_NO":999,"REV_AT_EPOCH":22240,"BSTAR":0.00094287,"MEAN_MOTION_DOT":3.52e-6,"MEAN_MOTION_DDOT":0},{"OBJECT_NAME":"ONEWEB-0132","OBJECT_ID":"2020-100W","EPOCH":"2025-07-29T19:24:49.592448","MEAN_MOTION":13.12442105,"ECCENTRICITY":0.0001886,"INCLINATION":87.8858,"RA_OF_ASC_NODE":54.7675,"ARG_OF_PERICENTER":90.6056,"MEAN_ANOMALY":269.5289,"EPHEMERIS_TYPE":0,"CLASSIFICATION_TYPE":"U","NORAD_CAT_ID":47278,"ELEMENT_SET_NO":999,"REV_AT_EPOCH":22229,"BSTAR":-0.00026207,"MEAN_MOTION_DOT":-8.2e-7,"MEAN_MOTION_DDOT":0},{"OBJECT_NAME":"ONEWEB-0133","OBJECT_ID":"2020-100X","EPOCH":"2025-07-29T14:18:38.049408","MEAN_MOTION":13.12443355,"ECCENTRICITY":0.0001914,"INCLINATION":87.8846,"RA_OF_ASC_NODE":54.7848,"ARG_OF_PERICENTER":83.4392,"MEAN_ANOMALY":276.6955,"EPHEMERIS_TYPE":0,"CLASSIFICATION_TYPE":"U","NORAD_CAT_ID":47279,"ELEMENT_SET_NO":999,"REV_AT_EPOCH":22242,"BSTAR":-0.0011297,"MEAN_MOTION_DOT":-3.94e-6,"MEAN_MOTION_DDOT":0},{"OBJECT_NAME":"ONEWEB-0134","OBJECT_ID":"2020-100Y","EPOCH":"2025-07-29T22:43:21.986400","MEAN_MOTION":13.1244124,"ECCENTRICITY":0.0001819,"INCLINATION":87.8849,"RA_OF_ASC_NODE":54.6985,"ARG_OF_PERICENTER":77.2978,"MEAN_ANOMALY":282.8353,"EPHEMERIS_TYPE":0,"CLASSIFICATION_TYPE":"U","NORAD_CAT_ID":47280,"ELEMENT_SET_NO":999,"REV_AT_EPOCH":22244,"BSTAR":0.00079819,"MEAN_MOTION_DOT":3.0e-6,"MEAN_MOTION_DDOT":0},{"OBJECT_NAME":"ONEWEB-0135","OBJECT_ID":"2020-100Z","EPOCH":"2025-07-30T12:39:34.289280","MEAN_MOTION":13.12443461,"ECCENTRICITY":0.0002031,"INCLINATION":87.8854,"RA_OF_ASC_NODE":54.6215,"ARG_OF_PERICENTER":74.763,"MEAN_ANOMALY":285.3723,"EPHEMERIS_TYPE":0,"CLASSIFICATION_TYPE":"U","NORAD_CAT_ID":47281,"ELEMENT_SET_NO":999,"REV_AT_EPOCH":22254,"BSTAR":-0.00086288,"MEAN_MOTION_DOT":-2.98e-6,"MEAN_MOTION_DDOT":0},{"OBJECT_NAME":"ONEWEB-0136","OBJECT_ID":"2020-100AA","EPOCH":"2025-07-30T02:08:55.242528","MEAN_MOTION":13.12442196,"ECCENTRICITY":0.0001822,"INCLINATION":87.8855,"RA_OF_ASC_NODE":54.6763,"ARG_OF_PERICENTER":71.0672,"MEAN_ANOMALY":289.0654,"EPHEMERIS_TYPE":0,"CLASSIFICATION_TYPE":"U","NORAD_CAT_ID":47282,"ELEMENT_SET_NO":999,"REV_AT_EPOCH":22241,"BSTAR":0.0010977,"MEAN_MOTION_DOT":4.08e-6,"MEAN_MOTION_DDOT":0},{"OBJECT_NAME":"ONEWEB-0137","OBJECT_ID":"2020-100AB","EPOCH":"2025-07-30T02:57:57.754368","MEAN_MOTION":13.12442067,"ECCENTRICITY":0.0001564,"INCLINATION":87.8856,"RA_OF_ASC_NODE":54.6762,"ARG_OF_PERICENTER":88.2224,"MEAN_ANOMALY":271.9084,"EPHEMERIS_TYPE":0,"CLASSIFICATION_TYPE":"U","NORAD_CAT_ID":47283,"ELEMENT_SET_NO":999,"REV_AT_EPOCH":22232,"BSTAR":-0.000925,"MEAN_MOTION_DOT":-3.2e-6,"MEAN_MOTION_DDOT":0},{"OBJECT_NAME":"ONEWEB-0138","OBJECT_ID":"2020-100AC","EPOCH":"2025-07-30T13:26:17.667744","MEAN_MOTION":13.12441567,"ECCENTRICITY":0.0001713,"INCLINATION":87.8851,"RA_OF_ASC_NODE":54.5997,"ARG_OF_PERICENTER":82.0099,"MEAN_ANOMALY":278.1224,"EPHEMERIS_TYPE":0,"CLASSIFICATION_TYPE":"U","NORAD_CAT_ID":47284,"ELEMENT_SET_NO":999,"REV_AT_EPOCH":22246,"BSTAR":0.0010722,"MEAN_MOTION_DOT":3.98e-6,"MEAN_MOTION_DDOT":0},{"OBJECT_NAME":"ONEWEB-0139","OBJECT_ID":"2020-100AD","EPOCH":"2025-07-30T01:34:04.875744","MEAN_MOTION":13.12442757,"ECCENTRICITY":0.0001752,"INCLINATION":87.8853,"RA_OF_ASC_NODE":54.6916,"ARG_OF_PERICENTER":85.4233,"MEAN_ANOMALY":274.7095,"EPHEMERIS_TYPE":0,"CLASSIFICATION_TYPE":"U","NORAD_CAT_ID":47285,"ELEMENT_SET_NO":999,"REV_AT_EPOCH":22247,"BSTAR":-0.00074425,"MEAN_MOTION_DOT":-2.55e-6,"MEAN_MOTION_DDOT":0},{"OBJECT_NAME":"ONEWEB-0140","OBJECT_ID":"2020-100AE","EPOCH":"2025-07-29T22:38:41.989056","MEAN_MOTION":13.12441515,"ECCENTRICITY":0.0001766,"INCLINATION":87.885,"RA_OF_ASC_NODE":54.6998,"ARG_OF_PERICENTER":81.6288,"MEAN_ANOMALY":278.504,"EPHEMERIS_TYPE":0,"CLASSIFICATION_TYPE":"U","NORAD_CAT_ID":47286,"ELEMENT_SET_NO":999,"REV_AT_EPOCH":22242,"BSTAR":0.00096004,"MEAN_MOTION_DOT":3.58e-6,"MEAN_MOTION_DDOT":0},{"OBJECT_NAME":"ONEWEB-0141","OBJECT_ID":"2020-100AF","EPOCH":"2025-07-29T14:35:00.253248","MEAN_MOTION":13.12450019,"ECCENTRICITY":0.0001499,"INCLINATION":87.8844,"RA_OF_ASC_NODE":54.7845,"ARG_OF_PERICENTER":89.2101,"MEAN_ANOMALY":270.9199,"EPHEMERIS_TYPE":0,"CLASSIFICATION_TYPE":"U","NORAD_CAT_ID":47287,"ELEMENT_SET_NO":999,"REV_AT_EPOCH":22236,"BSTAR":-0.0029305,"MEAN_MOTION_DOT":-1.042e-5,"MEAN_MOTION_DDOT":0}]
