ONEWEB-0125             
1 47271U 20100P   25211.52910245 -.00000182  00000+0 -54239-3 0  9991
2 47271  87.8861  54.5921 0001739  95.1319 265.0008 13.12443500222443
ONEWEB-0126             
1 47272U 20100Q   25210.94044522  .00000501  00000+0  13562-2 0  9999
2 47272  87.8869  54.7274 0001671  83.5146 276.6173 13.12443556222430
ONEWEB-0127             
1 47273U 20100R   25211.13493544 -.00000429  00000+0 -12281-2 0  9992
2 47273  87.8862  54.7040 0001711  80.9709 279.1613 13.12443305222480
ONEWEB-0128             
1 47274U 20100S   25211.08141614  .00000226  00000+0  59176-3 0  9993
2 47274  87.8855  54.7415 0001914  79.4431 280.6914 13.12443198222491
ONEWEB-0129             
1 47275U 20100T   25211.06032314 -.00000355  00000+0 -10229-2 0  9998
2 47275  87.8860  54.6883 0001170  42.7304 317.3916 13.12443280222427
ONEWEB-0130             
1 47276U 20100U   25211.08790355  .00000356  00000+0  95293-3 0  9991
2 47276  87.8847  54.6828 0001782  81.9938 278.1393 13.12445468222398
ONEWEB-0131             
1 47277U 20100V   25210.85595534  .00000352  00000+0  94287-3 0  9996
2 47277  87.8853  54.7558 0001848  84.5788 275.5551 13.12443468222409
ONEWEB-0132             
1 47278U 20100W   25210.80890732 -.00000082  00000+0 -26207-3 0  9999
2 47278  87.8858  54.7675 0001886  90.6056 269.5289 13.12442105222298
ONEWEB-0133             
1 47279U 20100X   25210.59627372 -.00000394  00000+0 -11297-2 0  9992
2 47279  87.8846  54.7848 0001914  83.4392 276.6955 13.12443355222425
ONEWEB-0134             
1 47280U 20100Y   25210.94678225  .00000300  00000+0  79819-3 0  9996
2 47280  87.8849  54.6985 0001819  77.2978 282.8353 13.12441240222440
ONEWEB-0135             
1 47281U 20100Z   25211.52748020 -.00000298  00000+0 -86288-3 0  9999
2 47281  87.8854  54.6215 0002031  74.7630 285.3723 13.12443461222544
ONEWEB-0136             
1 47282U 20100AA  25211.08952827  .00000408  00000+0  10977-2 0  9995
2 47282  87.8855  54.6763 0001822  71.0672 289.0654 13.12442196222411
ONEWEB-0137             
1 47283U 20100AB  25211.12358512 -.00000320  00000+0 -92500-3 0  9990
2 47283  87.8856  54.6762 0001564  88.2224 271.9084 13.12442067222322
ONEWEB-0138             
1 47284U 20100AC  25211.55992671  .00000398  00000+0  10722-2 0  9996
2 47284  87.8851  54.5997 0001713  82.0099 278.1224 13.12441567222469
ONEWEB-0139             
1 47285U 20100AD  25211.06533421 -.00000255  00000+0 -74425-3 0  9992
2 47285  87.8853  54.6916 0001752  85.4233 274.7095 13.12442757222475
ONEWEB-0140             
1 47286U 20100AE  25210.94354154  .00000358  00000+0  96004-3 0  9992
2 47286  87.8850  54.6998 0001766  81.6288 278.5040 13.12441515222424
ONEWEB-0141             
1 47287U 20100AF  25210.60764182 -.00001042  00000+0 -29305-2 0  9994
2 47287  87.8844  54.7845 0001499  89.2101 270.9199 13.12450019222364
